COSMOS 2251 DEB         
1 34544U 93036UE  26116.63542382  .00000626  00000+0  59224-3 0  9998
2 34544  73.9174 345.6199 0381250 349.1267  38.8614 13.54913027847094
COSMOS 2251 DEB         
1 34546U 93036UG  26117.11307700  .00001604  00000+0  45617-3 0  9995
2 34546  74.0317 356.6318 0020557  42.6404 108.4469 14.46039665899829
COSMOS 2251 DEB         
1 34547U 93036UH  26116.62978513  .00010314  00000+0  15184-2 0  9990
2 34547  74.0293 197.4405 0018824 247.4633 112.4549 14.75364122905096
COSMOS 2251 DEB         
1 34553U 93036UP  26117.26261777  .00004447  00000+0  94525-3 0  9992
2 34553  74.0241 293.7083 0017713 342.2787  76.4052 14.59266033900725
COSMOS 2251 DEB         
1 34554U 93036UQ  26117.07524094  .00000657  00000+0  22428-3 0  9998
2 34554  74.0395  49.7376 0022048  84.4335 289.3270 14.38203929897017
COSMOS 2251 DEB         
1 34556U 93036US  26117.25351637  .00017898  00000+0  22307-2 0  9991
2 34556  74.0150 217.4969 0008334 256.8770 131.8159 14.82403816903347
COSMOS 2251 DEB         
1 34560U 93036UW  26116.77909027  .00012157  00000+0  17793-2 0  9990
2 34560  74.0153 238.3193 0014209 289.5492 222.5997 14.75633040902419
COSMOS 2251 DEB         
1 34563U 93036UZ  26117.29673965  .00001404  00000+0  39289-3 0  9998
2 34563  74.0374 310.5100 0012816  14.1785 164.7849 14.47017495901575
COSMOS 2251 DEB         
1 34564U 93036VA  26116.69641347  .00000642  00000+0  20786-3 0  9996
2 34564  74.0340 348.2703 0018168  63.3397 353.5545 14.40933081899508
COSMOS 2251 DEB         
1 34567U 93036VD  26117.17128052  .00000350  00000+0  15851-3 0  9999
2 34567  74.0404 272.9969 0074072 313.9083 224.2360 14.24158225890524
COSMOS 2251 DEB         
1 34569U 93036VF  26116.97974259  .00001510  00000+0  57429-3 0  9992
2 34569  73.9901 313.4947 0157477 111.3875  37.7421 14.25162914888942
COSMOS 2251 DEB         
1 34570U 93036VG  26115.33046358  .00000707  00000+0  42375-3 0  9994
2 34570  73.9594 345.8885 0191377 200.1935 284.4303 14.00085109874705
COSMOS 2251 DEB         
1 34571U 93036VH  26116.90448133  .00007466  00000+0  18283-2 0  9995
2 34571  74.0381 288.5080 0058523 291.7121  67.7816 14.51589333892536
COSMOS 2251 DEB         
1 34572U 93036VJ  26116.72704800  .00008640  00000+0  20703-2 0  9997
2 34572  74.0087 221.0290 0062351 262.8768 248.2477 14.52434665893364
COSMOS 2251 DEB         
1 34574U 93036VL  26117.10433041  .00005149  00000+0  78544-3 0  9996
2 34574  74.0659 140.4409 0063230 128.7516 289.4025 14.72760002907704
COSMOS 2251 DEB         
1 34576U 93036VN  26116.80578519  .00003295  00000+0  74846-3 0  9995
2 34576  74.0337 242.0930 0007921 341.1763 146.6458 14.56389358904329
