[{"OBJECT_NAME":"COSMOS 2251 DEB","OBJECT_ID":"1993-036UE","EPOCH":"2026-04-26T15:15:00.618048","MEAN_MOTION":13.54913027,"ECCENTRICITY":0.03812509,"INCLINATION":73.9174,"RA_OF_ASC_NODE":345.6199,"ARG_OF_PERICENTER":349.1267,"MEAN_ANOMALY":38.8614,"EPHEMERIS_TYPE":0,"CLASSIFICATION_TYPE":"U","NORAD_CAT_ID":34544,"ELEMENT_SET_NO":999,"REV_AT_EPOCH":84709,"BSTAR":0.00059223645,"MEAN_MOTION_DOT":6.26e-6,"MEAN_MOTION_DDOT":0},{"OBJECT_NAME":"COSMOS 2251 DEB","OBJECT_ID":"1993-036UG","EPOCH":"2026-04-27T02:42:49.852800","MEAN_MOTION":14.46039665,"ECCENTRICITY":0.00205576,"INCLINATION":74.0317,"RA_OF_ASC_NODE":356.6318,"ARG_OF_PERICENTER":42.6404,"MEAN_ANOMALY":108.4469,"EPHEMERIS_TYPE":0,"CLASSIFICATION_TYPE":"U","NORAD_CAT_ID":34546,"ELEMENT_SET_NO":999,"REV_AT_EPOCH":89982,"BSTAR":0.00045617441,"MEAN_MOTION_DOT":1.604e-5,"MEAN_MOTION_DDOT":0},{"OBJECT_NAME":"COSMOS 2251 DEB","OBJECT_ID":"1993-036UH","EPOCH":"2026-04-26T15:06:53.435232","MEAN_MOTION":14.75364122,"ECCENTRICITY":0.00188244,"INCLINATION":74.0293,"RA_OF_ASC_NODE":197.4405,"ARG_OF_PERICENTER":247.4633,"MEAN_ANOMALY":112.4549,"EPHEMERIS_TYPE":0,"CLASSIFICATION_TYPE":"U","NORAD_CAT_ID":34547,"ELEMENT_SET_NO":999,"REV_AT_EPOCH":90509,"BSTAR":0.0015184316,"MEAN_MOTION_DOT":0.00010314,"MEAN_MOTION_DDOT":0},{"OBJECT_NAME":"COSMOS 2251 DEB","OBJECT_ID":"1993-036UP","EPOCH":"2026-04-27T06:18:10.175328","MEAN_MOTION":14.59266033,"ECCENTRICITY":0.00177135,"INCLINATION":74.0241,"RA_OF_ASC_NODE":293.7083,"ARG_OF_PERICENTER":342.2787,"MEAN_ANOMALY":76.4052,"EPHEMERIS_TYPE":0,"CLASSIFICATION_TYPE":"U","NORAD_CAT_ID":34553,"ELEMENT_SET_NO":999,"REV_AT_EPOCH":90072,"BSTAR":0.00094524816,"MEAN_MOTION_DOT":4.447e-5,"MEAN_MOTION_DDOT":0},{"OBJECT_NAME":"COSMOS 2251 DEB","OBJECT_ID":"1993-036UQ","EPOCH":"2026-04-27T01:48:20.817216","MEAN_MOTION":14.38203929,"ECCENTRICITY":0.00220489,"INCLINATION":74.0395,"RA_OF_ASC_NODE":49.7376,"ARG_OF_PERICENTER":84.4335,"MEAN_ANOMALY":289.327,"EPHEMERIS_TYPE":0,"CLASSIFICATION_TYPE":"U","NORAD_CAT_ID":34554,"ELEMENT_SET_NO":999,"REV_AT_EPOCH":89701,"BSTAR":0.00022428245,"MEAN_MOTION_DOT":6.57e-6,"MEAN_MOTION_DDOT":0},{"OBJECT_NAME":"COSMOS 2251 DEB","OBJECT_ID":"1993-036US","EPOCH":"2026-04-27T06:05:03.814368","MEAN_MOTION":14.82403816,"ECCENTRICITY":0.00083348,"INCLINATION":74.015,"RA_OF_ASC_NODE":217.4969,"ARG_OF_PERICENTER":256.877,"MEAN_ANOMALY":131.8159,"EPHEMERIS_TYPE":0,"CLASSIFICATION_TYPE":"U","NORAD_CAT_ID":34556,"ELEMENT_SET_NO":999,"REV_AT_EPOCH":90334,"BSTAR":0.0022306932,"MEAN_MOTION_DOT":0.00017898,"MEAN_MOTION_DDOT":0},{"OBJECT_NAME":"COSMOS 2251 DEB","OBJECT_ID":"1993-036UW","EPOCH":"2026-04-26T18:41:53.399328","MEAN_MOTION":14.7563304,"ECCENTRICITY":0.00142094,"INCLINATION":74.0153,"RA_OF_ASC_NODE":238.3193,"ARG_OF_PERICENTER":289.5492,"MEAN_ANOMALY":222.5997,"EPHEMERIS_TYPE":0,"CLASSIFICATION_TYPE":"U","NORAD_CAT_ID":34560,"ELEMENT_SET_NO":999,"REV_AT_EPOCH":90241,"BSTAR":0.0017793065,"MEAN_MOTION_DOT":0.00012157,"MEAN_MOTION_DDOT":0},{"OBJECT_NAME":"COSMOS 2251 DEB","OBJECT_ID":"1993-036UZ","EPOCH":"2026-04-27T07:07:18.305760","MEAN_MOTION":14.47017495,"ECCENTRICITY":0.00128169,"INCLINATION":74.0374,"RA_OF_ASC_NODE":310.51,"ARG_OF_PERICENTER":14.1785,"MEAN_ANOMALY":164.7849,"EPHEMERIS_TYPE":0,"CLASSIFICATION_TYPE":"U","NORAD_CAT_ID":34563,"ELEMENT_SET_NO":999,"REV_AT_EPOCH":90157,"BSTAR":0.00039288934,"MEAN_MOTION_DOT":1.404e-5,"MEAN_MOTION_DDOT":0},{"OBJECT_NAME":"COSMOS 2251 DEB","OBJECT_ID":"1993-036VA","EPOCH":"2026-04-26T16:42:50.123808","MEAN_MOTION":14.40933081,"ECCENTRICITY":0.00181688,"INCLINATION":74.034,"RA_OF_ASC_NODE":348.2703,"ARG_OF_PERICENTER":63.3397,"MEAN_ANOMALY":353.5545,"EPHEMERIS_TYPE":0,"CLASSIFICATION_TYPE":"U","NORAD_CAT_ID":34564,"ELEMENT_SET_NO":999,"REV_AT_EPOCH":89950,"BSTAR":0.00020786412,"MEAN_MOTION_DOT":6.42e-6,"MEAN_MOTION_DDOT":0},{"OBJECT_NAME":"COSMOS 2251 DEB","OBJECT_ID":"1993-036VD","EPOCH":"2026-04-27T04:06:38.636928","MEAN_MOTION":14.24158225,"ECCENTRICITY":0.00740723,"INCLINATION":74.0404,"RA_OF_ASC_NODE":272.9969,"ARG_OF_PERICENTER":313.9083,"MEAN_ANOMALY":224.236,"EPHEMERIS_TYPE":0,"CLASSIFICATION_TYPE":"U","NORAD_CAT_ID":34567,"ELEMENT_SET_NO":999,"REV_AT_EPOCH":89052,"BSTAR":0.00015851131,"MEAN_MOTION_DOT":3.5e-6,"MEAN_MOTION_DDOT":0},{"OBJECT_NAME":"COSMOS 2251 DEB","OBJECT_ID":"1993-036VF","EPOCH":"2026-04-26T23:30:49.759776","MEAN_MOTION":14.25162914,"ECCENTRICITY":0.0157477,"INCLINATION":73.9901,"RA_OF_ASC_NODE":313.4947,"ARG_OF_PERICENTER":111.3875,"MEAN_ANOMALY":37.7421,"EPHEMERIS_TYPE":0,"CLASSIFICATION_TYPE":"U","NORAD_CAT_ID":34569,"ELEMENT_SET_NO":999,"REV_AT_EPOCH":88894,"BSTAR":0.00057429,"MEAN_MOTION_DOT":1.51e-5,"MEAN_MOTION_DDOT":0},{"OBJECT_NAME":"COSMOS 2251 DEB","OBJECT_ID":"1993-036VG","EPOCH":"2026-04-25T07:55:52.053312","MEAN_MOTION":14.00085109,"ECCENTRICITY":0.01913777,"INCLINATION":73.9594,"RA_OF_ASC_NODE":345.8885,"ARG_OF_PERICENTER":200.1935,"MEAN_ANOMALY":284.4303,"EPHEMERIS_TYPE":0,"CLASSIFICATION_TYPE":"U","NORAD_CAT_ID":34570,"ELEMENT_SET_NO":999,"REV_AT_EPOCH":87470,"BSTAR":0.000423755,"MEAN_MOTION_DOT":7.07e-6,"MEAN_MOTION_DDOT":0},{"OBJECT_NAME":"COSMOS 2251 DEB","OBJECT_ID":"1993-036VH","EPOCH":"2026-04-26T21:42:27.186912","MEAN_MOTION":14.51589333,"ECCENTRICITY":0.0058523,"INCLINATION":74.0381,"RA_OF_ASC_NODE":288.508,"ARG_OF_PERICENTER":291.7121,"MEAN_ANOMALY":67.7816,"EPHEMERIS_TYPE":0,"CLASSIFICATION_TYPE":"U","NORAD_CAT_ID":34571,"ELEMENT_SET_NO":999,"REV_AT_EPOCH":89253,"BSTAR":0.0018283,"MEAN_MOTION_DOT":7.466e-5,"MEAN_MOTION_DDOT":0},{"OBJECT_NAME":"COSMOS 2251 DEB","OBJECT_ID":"1993-036VJ","EPOCH":"2026-04-26T17:26:56.947200","MEAN_MOTION":14.52434665,"ECCENTRICITY":0.00623516,"INCLINATION":74.0087,"RA_OF_ASC_NODE":221.029,"ARG_OF_PERICENTER":262.8768,"MEAN_ANOMALY":248.2477,"EPHEMERIS_TYPE":0,"CLASSIFICATION_TYPE":"U","NORAD_CAT_ID":34572,"ELEMENT_SET_NO":999,"REV_AT_EPOCH":89336,"BSTAR":0.0020703103,"MEAN_MOTION_DOT":8.64e-5,"MEAN_MOTION_DDOT":0},{"OBJECT_NAME":"COSMOS 2251 DEB","OBJECT_ID":"1993-036VL","EPOCH":"2026-04-27T02:30:14.147424","MEAN_MOTION":14.72760002,"ECCENTRICITY":0.00632301,"INCLINATION":74.0659,"RA_OF_ASC_NODE":140.4409,"ARG_OF_PERICENTER":128.7516,"MEAN_ANOMALY":289.4025,"EPHEMERIS_TYPE":0,"CLASSIFICATION_TYPE":"U","NORAD_CAT_ID":34574,"ELEMENT_SET_NO":999,"REV_AT_EPOCH":90770,"BSTAR":0.00078544401,"MEAN_MOTION_DOT":5.149e-5,"MEAN_MOTION_DDOT":0},{"OBJECT_NAME":"COSMOS 2251 DEB","OBJECT_ID":"1993-036VN","EPOCH":"2026-04-26T19:20:19.840416","MEAN_MOTION":14.56389358,"ECCENTRICITY":0.00079213,"INCLINATION":74.0337,"RA_OF_ASC_NODE":242.093,"ARG_OF_PERICENTER":341.1763,"MEAN_ANOMALY":146.6458,"EPHEMERIS_TYPE":0,"CLASSIFICATION_TYPE":"U","NORAD_CAT_ID":34576,"ELEMENT_SET_NO":999,"REV_AT_EPOCH":90432,"BSTAR":0.00074846042,"MEAN_MOTION_DOT":3.295e-5,"MEAN_MOTION_DDOT":0}]
